STARLINK-31078          
1 58638U 23203W   26036.28753983  .00000254  00000+0  18731-4 0  9996
2 58638  42.9999 250.2784 0001025 280.4169  79.6567 15.27580588118605
STARLINK-31070          
1 58639U 23203X   26037.87096307  .00000023  00000+0  10350-4 0  9996
2 58639  42.9986 241.5198 0000909 193.8614 166.2213 15.27567694118846
STARLINK-31090          
1 58640U 23203Y   26037.84865315 -.00001730  00000+0 -53373-4 0  9998
2 58640  43.0027 233.5733 0001837 274.3241  85.7400 15.27564818118943
TIANMU-1 11             
1 58645U 23205A   26038.30784431  .00007776  00000+0  30970-3 0  9997
2 58645  97.3575  61.9581 0010996 101.6968 258.5505 15.25453998117710
TIANMU-1 12             
1 58646U 23205B   26038.27305832  .00008756  00000+0  34941-3 0  9999
2 58646  97.3563  61.7113 0009291  87.9476 272.2826 15.25364287117691
TIANMU-1 13             
1 58647U 23205C   26038.30493256  .00008324  00000+0  33185-3 0  9992
2 58647  97.3589  61.9681 0009417  72.9453 287.2816 15.25412183117695
TIANMU-1 14             
1 58648U 23205D   26038.28905334  .00016271  00000+0  64557-3 0  9992
2 58648  97.3526  61.2491 0010267  76.1733 284.0647 15.25391368117699
SHIYAN-24C 01           
1 58650U 23206A   26037.76203498  .00002437  00000+0  21240-3 0  9991
2 58650  97.3927  12.3030 0001201 278.2396  81.8691 14.97745931115788
SHIYAN-24C 02           
1 58651U 23206B   26037.76145196  .00003104  00000+0  26901-3 0  9993
2 58651  97.3934  12.3218 0001976 125.7432 234.3975 14.97784686115781
SHIYAN-24C 03           
1 58652U 23206C   26037.76033536  .00001624  00000+0  14297-3 0  9998
2 58652  97.3919  12.2723 0002339  94.7242 265.4248 14.97782565115774
BEIDOU-3 M28            
1 58654U 23207A   26035.67076021 -.00000043  00000+0  00000+0 0  9993
2 58654  55.6334  66.7743 0004384 292.5501  67.4647  1.86229743 14373
BEIDOU-3 M26            
1 58655U 23207B   26037.07908709 -.00000051  00000+0  00000+0 0  9996
2 58655  55.6366  66.7128 0005448 279.3916  80.6030  1.86229649 14380
TIANMU-1 19             
1 58660U 23208A   26038.30793962  .00013421  00000+0  47620-3 0  9990
2 58660  97.4376 154.2824 0006100  64.0426 296.1441 15.29169060117463
TIANMU-1 20             
1 58661U 23208B   26038.25048284  .00013449  00000+0  45985-3 0  9997
2 58661  97.4314 154.7281 0008413  70.5860 289.6289 15.30358916117538
TIANMU-1 21             
1 58662U 23208C   26038.28780765  .00015676  00000+0  50477-3 0  9994
2 58662  97.4365 156.9278 0008128  65.4256 294.7832 15.32263885117656
TIANMU-1 22             
1 58663U 23208D   26038.25299550  .00012728  00000+0  45654-3 0  9995
2 58663  97.4370 154.2572 0005013  85.6057 274.5756 15.28829511117463
MDQUBESAT-2             
1 58665U 23185P   26038.19253584  .00120208  00000+0  19790-2 0  9995
2 58665  97.5491 123.6305 0006382 345.4129  14.6937 15.51890725117545
STARLINK-31113          
1 58668U 23211B   26037.99422122 -.00001809  00000+0 -56193-4 0  9998
2 58668  43.0053 258.3270 0003255 247.7185 112.3321 15.27567120117778
STARLINK-31128          
1 58669U 23211C   26037.94555235  .00007319  00000+0  27531-3 0  9999
2 58669  42.9901 258.8262 0002542  77.4783 282.6353 15.27567015117763
STARLINK-31083          
1 58670U 23211D   26037.99037153 -.00001591  00000+0 -48330-4 0  9999
2 58670  43.0034 258.3044 0001623 267.2157  92.8509 15.27566786117779
STARLINK-30828          
1 58671U 23211E   26037.04038293 -.00008498  00000+0 -29911-3 0  9998
2 58671  42.9968 264.0689 0000619  12.3323 347.7543 15.27640273117629
STARLINK-31104          
1 58672U 23211F   26037.89388351 -.00002003  00000+0 -66789-4 0  9996
2 58672  42.9960 258.4343 0000793 253.5542 106.5222 15.25893356119044
STARLINK-31131          
1 58673U 23211G   26037.99564721 -.00000785  00000+0 -19040-4 0  9998
2 58673  42.9981 247.8206 0000570 237.0981 122.9815 15.27575031119178
STARLINK-31124          
1 58674U 23211H   26038.06345351  .00028296  00000+0  10332-2 0  9992
2 58674  43.0023 257.9921 0002136 253.6719 106.3898 15.27599544117784
STARLINK-31126          
1 58675U 23211J   26037.98266376  .00015882  00000+0  58673-3 0  9990
2 58675  43.0025 258.2318 0001136 161.6454 198.4439 15.27506628117777
STARLINK-31066          
1 58676U 23211K   26037.48126330 -.00000901  00000+0 -51639-4 0  9995
2 58676  43.0049  44.2622 0001258 268.4008  91.6690 15.02531610117293
STARLINK-31058          
1 58677U 23211L   26038.00065257 -.00001152  00000+0 -32347-4 0  9999
2 58677  43.0033 258.3799 0001630 280.1021  79.9646 15.27568024117779
STARLINK-31125          
1 58678U 23211M   26037.04296403  .00003770  00000+0  14643-3 0  9996
2 58678  43.0000 264.0866 0001644 268.2368  91.8296 15.27584398118798
STARLINK-31110          
1 58679U 23211N   26037.02368449 -.00000946  00000+0 -24829-4 0  9997
2 58679  43.0011 263.9506 0001442 274.6369  85.4318 15.27601401117628
STARLINK-31112          
1 58680U 23211P   26038.01222520 -.00000869  00000+0 -22074-4 0  9992
2 58680  42.9984 258.4687 0000522 327.6772  32.4047 15.27557243118953
STARLINK-31147          
1 58681U 23211Q   26036.98143118  .00005214  00000+0  19876-3 0  9994
2 58681  43.0012 264.4897 0001328 262.3926  97.6775 15.27598978117612
STARLINK-31144          
1 58682U 23211R   26037.98522380 -.00002508  00000+0 -81684-4 0  9990
2 58682  42.9994 258.2565 0000895 252.3695 107.7059 15.27562378117773
STARLINK-31095          
1 58683U 23211S   26038.04048115 -.00000745  00000+0 -17577-4 0  9999
2 58683  42.9998 258.6734 0000957 268.9425  91.1317 15.27570515119040
STARLINK-31107          
1 58684U 23211T   26037.98151778 -.00009519  00000+0 -33659-3 0  9998
2 58684  43.0017 259.0887 0000989 272.9447  87.1292 15.27603498117764
STARLINK-31121          
1 58685U 23211U   26037.00827476 -.00001181  00000+0 -33412-4 0  9992
2 58685  43.0030 263.8262 0000785 280.4206  79.6557 15.27577035117623
STARLINK-31137          
1 58686U 23211V   26036.97885530  .00002135  00000+0  87080-4 0  9991
2 58686  43.0019 264.4660 0001285 262.5456  97.5250 15.27587954117613
STARLINK-31139          
1 58688U 23211X   26038.25003472  .00476366  99547-4  11069-2 0  9995
2 58688  42.9761 229.2251 0025904 287.8663 199.3589 15.95633304  5793
STARLINK-31106          
1 58689U 23211Y   26037.03653289  .00002731  00000+0  10871-3 0  9991
2 58689  43.0004 264.0400 0001222 276.2571  83.8141 15.27589427117624
HULIANWANG JISHU SHIYAN*
1 58691U 23212A   26038.22557668 -.00000068  00000+0  10845-3 0  9994
2 58691  50.0001  99.8658 0000741 127.5366 232.5579 13.41447336103805
HULIANWANG JISHU SHIYAN*
1 58692U 23212B   26038.21905043 -.00000074  00000+0  96202-4 0  9997
2 58692  49.9970 100.2864 0000795 106.8161 253.2803 13.41448937103804
HULIANWANG JISHU SHIYAN*
1 58693U 23212C   26038.22246284 -.00000074  00000+0  96549-4 0  9998
2 58693  49.9984 100.3856 0000593  89.4186 270.6760 13.41450105103817
OVZON-3                 
1 58698U 24003A   26038.20820797  .00000055  00000+0  00000+0 0  9997
2 58698   0.0156 149.2079 0000014 250.1398 232.5999  1.00273151  6134
TIANMU-1 15             
1 58700U 24004A   26038.28663309  .00008730  00000+0  34850-3 0  9996
2 58700  97.4652 224.5788 0008439  86.7202 273.5001 15.25366708115963
TIANMU-1 16             
1 58701U 24004B   26038.27074051  .00009447  00000+0  37665-3 0  9999
2 58701  97.4592 223.9084 0006820  89.0747 271.1272 15.25396492115968
TIANMU-1 17             
1 58702U 24004C   26038.31940760  .00009631  00000+0  38352-3 0  9993
2 58702  97.4626 224.3957 0006017  90.0396 270.1532 15.25436232115966
TIANMU-1 18             
1 58703U 24004D   26038.30366376  .00008870  00000+0  35392-3 0  9993
2 58703  97.4643 224.5864 0005432  89.2496 270.9364 15.25396838115964
STARLINK-11072 [DTC]    
1 58705U 24002A   26038.29550166  .00007582  00000+0  67292-4 0  9997
2 58705  53.1578  63.8512 0002310 137.0013 223.1186 15.69744899121663
STARLINK-11075 [DTC]    
1 58706U 24002B   26038.30041201 -.00005199  00000+0 -38061-4 0  9991
2 58706  53.1574  63.8874 0000500  67.3115 292.7956 15.69725341121666
STARLINK-11077 [DTC]    
1 58707U 24002C   26038.30532376  .00005549  00000+0  50594-4 0  9992
2 58707  53.1573  63.8986 0002713  25.7569 334.3583 15.69733121121663
STARLINK-11079 [DTC]    
1 58708U 24002D   26038.29062616  .00024928  00000+0  21107-3 0  9995
2 58708  53.1607  63.8146 0001495  54.2447 305.8710 15.69585803121665
STARLINK-11076 [DTC]    
1 58709U 24002E   26038.28570425  .00002871  00000+0  28564-4 0  9995
2 58709  53.1603  63.7884 0002451 124.6613 235.4636 15.69708397121660
STARLINK-11078 [DTC]    
1 58710U 24002F   26038.28079330  .00001902  00000+0  20551-4 0  9998
2 58710  53.1590  63.7541 0001598  85.4817 274.6383 15.69723568121669
STARLINK-31031          
1 58711U 24002G   26038.18814898  .00017130  00000+0  58911-3 0  9994
2 58711  53.1634  11.7409 0002127  67.1819 292.9407 15.30202841117347
STARLINK-31029          
1 58712U 24002H   26038.16070398  .00005175  00000+0  18669-3 0  9994
2 58712  53.1607  11.5675 0001075 105.4333 254.6787 15.30204580117347
STARLINK-30973          
1 58713U 24002J   26038.29766208 -.00000934  00000+0 -19410-4 0  9997
2 58713  53.1616  10.9994 0001315 101.3918 258.7231 15.30201625117364
STARLINK-31100          
1 58714U 24002K   26038.30082116  .00001381  00000+0  58754-4 0  9998
2 58714  53.1609  11.0192 0001223 104.0333 256.0804 15.30196028117365
STARLINK-31102          
1 58715U 24002L   26038.19446316 -.00001384  00000+0 -34599-4 0  9998
2 58715  53.1625  11.7700 0001158 131.8464 228.2635 15.30209417117344
STARLINK-31098          
1 58716U 24002M   26038.30293354  .00001382  00000+0  58777-4 0  9994
2 58716  53.1620  11.0316 0001329  98.8791 261.2360 15.30200731117365
STARLINK-31093          
1 58717U 24002N   26038.31032136  .00001579  00000+0  65433-4 0  9990
2 58717  53.1628  11.0887 0001604  85.8708 274.2476 15.30202012117363
